{
  "norad_id": 59273,
  "name": "STARLINK-31595",
  "history": [
    {
      "epoch": "2026-03-28T17:26:22.297344Z",
      "apogee_km": 476.10474321937363,
      "perigee_km": 474.38152931791046,
      "latitude_deg": 6.599916824613411e-06,
      "longitude_deg": 4.8128475323891715,
      "height_km": 476.2380527959355,
      "semi_major_axis_km": 6853.380136268642,
      "eccentricity": 0.00012572,
      "inclination_deg": 53.1616,
      "raan_deg": 92.5487,
      "arg_perigee_deg": 96.4405,
      "mean_anomaly_deg": 263.6739,
      "mean_motion_rev_day": 15.301906
    },
    {
      "epoch": "2026-03-29T04:24:44.525088Z",
      "apogee_km": 476.085554072527,
      "perigee_km": 474.38180612145607,
      "latitude_deg": 4.215705251869263e-06,
      "longitude_deg": -162.35440842573058,
      "height_km": 476.24479495020955,
      "semi_major_axis_km": 6853.370680096991,
      "eccentricity": 0.0001243,
      "inclination_deg": 53.1614,
      "raan_deg": 90.4247,
      "arg_perigee_deg": 97.612,
      "mean_anomaly_deg": 262.5022,
      "mean_motion_rev_day": 15.30193767
    },
    {
      "epoch": "2026-03-29T23:13:22.966752Z",
      "apogee_km": 476.0651746079757,
      "perigee_km": 474.409399380238,
      "latitude_deg": -1.911826551703366e-05,
      "longitude_deg": -88.92742611629936,
      "height_km": 476.23219470249484,
      "semi_major_axis_km": 6853.374286994107,
      "eccentricity": 0.0001208,
      "inclination_deg": 53.1611,
      "raan_deg": 86.7844,
      "arg_perigee_deg": 96.7021,
      "mean_anomaly_deg": 263.4117,
      "mean_motion_rev_day": 15.30192559
    },
    {
      "epoch": "2026-03-30T05:29:35.851488Z",
      "apogee_km": 476.0682411438347,
      "perigee_km": 474.4121910733347,
      "latitude_deg": -1.6889220625717775e-05,
      "longitude_deg": 175.54777958214993,
      "height_km": 476.23760841953185,
      "semi_major_axis_km": 6853.377216108584,
      "eccentricity": 0.00012082,
      "inclination_deg": 53.161,
      "raan_deg": 85.5708,
      "arg_perigee_deg": 96.8749,
      "mean_anomaly_deg": 263.2389,
      "mean_motion_rev_day": 15.30191578
    },
    {
      "epoch": "2026-03-30T10:11:45.646368Z",
      "apogee_km": 476.0519042191818,
      "perigee_km": 474.44588176901834,
      "latitude_deg": 1.1956987621719185e-07,
      "longitude_deg": 103.90424659986579,
      "height_km": 476.2459910548149,
      "semi_major_axis_km": 6853.3858929941,
      "eccentricity": 0.00011717,
      "inclination_deg": 53.1608,
      "raan_deg": 84.6612,
      "arg_perigee_deg": 97.0672,
      "mean_anomaly_deg": 263.0462,
      "mean_motion_rev_day": 15.30188672
    },
    {
      "epoch": "2026-03-30T16:27:58.873248Z",
      "apogee_km": 476.03450352074924,
      "perigee_km": 474.49166609365693,
      "latitude_deg": 1.8494339630720353e-05,
      "longitude_deg": 8.37793484538679,
      "height_km": 476.2550418496708,
      "semi_major_axis_km": 6853.400084807203,
      "eccentricity": 0.00011256,
      "inclination_deg": 53.1602,
      "raan_deg": 83.4475,
      "arg_perigee_deg": 96.9739,
      "mean_anomaly_deg": 263.139,
      "mean_motion_rev_day": 15.30183919
    },
    {
      "epoch": "2026-03-31T15:58:46.218144Z",
      "apogee_km": 476.08533012481894,
      "perigee_km": 474.3678772057401,
      "latitude_deg": -1.1063735828740135e-05,
      "longitude_deg": 10.164392907845382,
      "height_km": 476.1688731995086,
      "semi_major_axis_km": 6853.363603665279,
      "eccentricity": 0.0001253,
      "inclination_deg": 53.161,
      "raan_deg": 78.8969,
      "arg_perigee_deg": 92.9412,
      "mean_anomaly_deg": 267.1732,
      "mean_motion_rev_day": 15.30196137
    }
  ]
}